[
    {
        "Altitude(m)": 555994.399776161,
        "Argument of Periapsis(deg)": 0.006622991110713501,
        "Eccentricity": 0.0,
        "Inclination(deg)": 53.0,
        "Latitude(deg)": -9.625456009038038,
        "Longitude(deg)": -38.47103102330085,
        "Mean Anomaly(deg)": -168.0902071324224,
        "RAAN(deg)": 234.99014336852798,
        "Satellite Name": "Starlink Shell 1 1045",
        "Satellite Number": 1045,
        "Semi-Major Axis(m)": 6931778.249405717,
        "Time(s)": 190
    },
    {
        "Altitude(m)": 556111.5059663415,
        "Argument of Periapsis(deg)": 0.0069715695902247375,
        "Eccentricity": 0.0,
        "Inclination(deg)": 53.0,
        "Latitude(deg)": -10.124714950944044,
        "Longitude(deg)": -38.124504779757736,
        "Mean Anomaly(deg)": -167.46337592886567,
        "RAAN(deg)": 234.98962459845052,
        "Satellite Name": "Starlink Shell 1 1045",
        "Satellite Number": 1045,
        "Semi-Major Axis(m)": 6931778.249405717,
        "Time(s)": 200
    },
    {
        "Altitude(m)": 556230.9782220918,
        "Argument of Periapsis(deg)": 0.007320148069735974,
        "Eccentricity": 0.0,
        "Inclination(deg)": 53.0,
        "Latitude(deg)": -10.623487417060351,
        "Longitude(deg)": -37.7767891529542,
        "Mean Anomaly(deg)": -166.83654472530898,
        "RAAN(deg)": 234.98910582837308,
        "Satellite Name": "Starlink Shell 1 1045",
        "Satellite Number": 1045,
        "Semi-Major Axis(m)": 6931778.249405717,
        "Time(s)": 210
    },
    {
        "Altitude(m)": 556352.7818034692,
        "Argument of Periapsis(deg)": 0.007668726549247212,
        "Eccentricity": 0.0,
        "Inclination(deg)": 53.0,
        "Latitude(deg)": -11.121748019585546,
        "Longitude(deg)": -37.42782130976757,
        "Mean Anomaly(deg)": -166.2097135217523,
        "RAAN(deg)": 234.9885870582956,
        "Satellite Name": "Starlink Shell 1 1045",
        "Satellite Number": 1045,
        "Semi-Major Axis(m)": 6931778.249405717,
        "Time(s)": 220
    },
    {
        "Altitude(m)": 556476.8807894604,
        "Argument of Periapsis(deg)": 0.00801730502875845,
        "Eccentricity": 0.0,
        "Inclination(deg)": 53.0,
        "Latitude(deg)": -11.619471110071908,
        "Longitude(deg)": -37.07753787988534,
        "Mean Anomaly(deg)": -165.58288231819554,
        "RAAN(deg)": 234.98806828821813,
        "Satellite Name": "Starlink Shell 1 1045",
        "Satellite Number": 1045,
        "Semi-Major Axis(m)": 6931778.249405717,
        "Time(s)": 230
    },
    {
        "Altitude(m)": 556603.2380931533,
        "Argument of Periapsis(deg)": 0.008365883508269684,
        "Eccentricity": 0.0,
        "Inclination(deg)": 53.0,
        "Latitude(deg)": -12.116630765117225,
        "Longitude(deg)": -36.72587442506902,
        "Mean Anomaly(deg)": -164.95605111463883,
        "RAAN(deg)": 234.98754951814064,
        "Satellite Name": "Starlink Shell 1 1045",
        "Satellite Number": 1045,
        "Semi-Major Axis(m)": 6931778.249405717,
        "Time(s)": 240
    },
    {
        "Altitude(m)": 556731.8154774731,
        "Argument of Periapsis(deg)": 0.008714461987780921,
        "Eccentricity": 0.0,
        "Inclination(deg)": 53.0,
        "Latitude(deg)": -12.613200771804127,
        "Longitude(deg)": -36.37276642122255,
        "Mean Anomaly(deg)": -164.32921991108216,
        "RAAN(deg)": 234.98703074806315,
        "Satellite Name": "Starlink Shell 1 1045",
        "Satellite Number": 1045,
        "Semi-Major Axis(m)": 6931778.249405717,
        "Time(s)": 250
    },
    {
        "Altitude(m)": 556862.5735715152,
        "Argument of Periapsis(deg)": 0.009063040467292158,
        "Eccentricity": 0.0,
        "Inclination(deg)": 53.0,
        "Latitude(deg)": -13.109154612869515,
        "Longitude(deg)": -36.018148727526686,
        "Mean Anomaly(deg)": -163.70238870752542,
        "RAAN(deg)": 234.9865119779857,
        "Satellite Name": "Starlink Shell 1 1045",
        "Satellite Number": 1045,
        "Semi-Major Axis(m)": 6931778.249405717,
        "Time(s)": 260
    },
    {
        "Altitude(m)": 556995.4718874185,
        "Argument of Periapsis(deg)": 0.009411618946803396,
        "Eccentricity": 0.0,
        "Inclination(deg)": 53.0,
        "Latitude(deg)": -13.604465451593747,
        "Longitude(deg)": -35.661955055522945,
        "Mean Anomaly(deg)": -163.0755575039687,
        "RAAN(deg)": 234.98599320790822,
        "Satellite Name": "Starlink Shell 1 1045",
        "Satellite Number": 1045,
        "Semi-Major Axis(m)": 6931778.249405717,
        "Time(s)": 270
    },
    {
        "Altitude(m)": 557130.4688377993,
        "Argument of Periapsis(deg)": 0.009760197426314633,
        "Eccentricity": 0.0,
        "Inclination(deg)": 53.0,
        "Latitude(deg)": -14.099106116400717,
        "Longitude(deg)": -35.304118951029366,
        "Mean Anomaly(deg)": -162.44872630041195,
        "RAAN(deg)": 234.98547443783073,
        "Satellite Name": "Starlink Shell 1 1045",
        "Satellite Number": 1045,
        "Semi-Major Axis(m)": 6931778.249405717,
        "Time(s)": 280
    },
    {
        "Altitude(m)": 557267.5217537084,
        "Argument of Periapsis(deg)": 0.01010877590582587,
        "Eccentricity": 0.0,
        "Inclination(deg)": 53.0,
        "Latitude(deg)": -14.593049085150087,
        "Longitude(deg)": -34.94457326315645,
        "Mean Anomaly(deg)": -161.82189509685526,
        "RAAN(deg)": 234.98495566775333,
        "Satellite Name": "Starlink Shell 1 1045",
        "Satellite Number": 1045,
        "Semi-Major Axis(m)": 6931778.249405717,
        "Time(s)": 290
    },
    {
        "Altitude(m)": 557406.5869031572,
        "Argument of Periapsis(deg)": 0.010457354385337106,
        "Eccentricity": 0.0,
        "Inclination(deg)": 53.0,
        "Latitude(deg)": -15.086266469113559,
        "Longitude(deg)": -34.583249613311,
        "Mean Anomaly(deg)": -161.19506389329857,
        "RAAN(deg)": 234.9844368976758,
        "Satellite Name": "Starlink Shell 1 1045",
        "Satellite Number": 1045,
        "Semi-Major Axis(m)": 6931778.249405717,
        "Time(s)": 300
    },
    {
        "Altitude(m)": 557547.6195101254,
        "Argument of Periapsis(deg)": 0.010805932864848343,
        "Eccentricity": 0.0,
        "Inclination(deg)": 53.0,
        "Latitude(deg)": -15.578729996623439,
        "Longitude(deg)": -34.22007937707843,
        "Mean Anomaly(deg)": -160.56823268974176,
        "RAAN(deg)": 234.98391812759832,
        "Satellite Name": "Starlink Shell 1 1045",
        "Satellite Number": 1045,
        "Semi-Major Axis(m)": 6931778.249405717,
        "Time(s)": 310
    },
    {
        "Altitude(m)": 557690.5737741046,
        "Argument of Periapsis(deg)": 0.01115451134435958,
        "Eccentricity": 0.0,
        "Inclination(deg)": 53.0,
        "Latitude(deg)": -16.070410996377124,
        "Longitude(deg)": -33.85499315325825,
        "Mean Anomaly(deg)": -159.94140148618519,
        "RAAN(deg)": 234.98339935752085,
        "Satellite Name": "Starlink Shell 1 1045",
        "Satellite Number": 1045,
        "Semi-Major Axis(m)": 6931778.249405717,
        "Time(s)": 320
    },
    {
        "Altitude(m)": 557835.4028901458,
        "Argument of Periapsis(deg)": 0.011503089823870818,
        "Eccentricity": 0.0,
        "Inclination(deg)": 53.0,
        "Latitude(deg)": -16.561280380389203,
        "Longitude(deg)": -33.48792023294682,
        "Mean Anomaly(deg)": -159.31457028262838,
        "RAAN(deg)": 234.98288058744336,
        "Satellite Name": "Starlink Shell 1 1045",
        "Satellite Number": 1045,
        "Semi-Major Axis(m)": 6931778.249405717,
        "Time(s)": 330
    },
    {
        "Altitude(m)": 557982.059069376,
        "Argument of Periapsis(deg)": 0.011851668303382053,
        "Eccentricity": 0.0,
        "Inclination(deg)": 53.0,
        "Latitude(deg)": -17.05130862657701,
        "Longitude(deg)": -33.118789581569345,
        "Mean Anomaly(deg)": -158.68773907907172,
        "RAAN(deg)": 234.98236181736593,
        "Satellite Name": "Starlink Shell 1 1045",
        "Satellite Number": 1045,
        "Semi-Major Axis(m)": 6931778.249405717,
        "Time(s)": 340
    },
    {
        "Altitude(m)": 558130.4935600172,
        "Argument of Periapsis(deg)": 0.012200246782893292,
        "Eccentricity": 0.0,
        "Inclination(deg)": 53.0,
        "Latitude(deg)": -17.540465760968385,
        "Longitude(deg)": -32.74752930814015,
        "Mean Anomaly(deg)": -158.060907875515,
        "RAAN(deg)": 234.98184304728846,
        "Satellite Name": "Starlink Shell 1 1045",
        "Satellite Number": 1045,
        "Semi-Major Axis(m)": 6931778.249405717,
        "Time(s)": 350
    },
    {
        "Altitude(m)": 558280.6566688753,
        "Argument of Periapsis(deg)": 0.012548825262404526,
        "Eccentricity": 0.0,
        "Inclination(deg)": 53.0,
        "Latitude(deg)": -18.02872133951746,
        "Longitude(deg)": -32.37406613465932,
        "Mean Anomaly(deg)": -157.4340766719582,
        "RAAN(deg)": 234.98132427721097,
        "Satellite Name": "Starlink Shell 1 1045",
        "Satellite Number": 1045,
        "Semi-Major Axis(m)": 6931778.249405717,
        "Time(s)": 360
    },
    {
        "Altitude(m)": 558432.4977832488,
        "Argument of Periapsis(deg)": 0.012897403741915765,
        "Eccentricity": 0.0,
        "Inclination(deg)": 53.0,
        "Latitude(deg)": -18.516044429521173,
        "Longitude(deg)": -31.99832637855402,
        "Mean Anomaly(deg)": -156.80724546840153,
        "RAAN(deg)": 234.98080550713348,
        "Satellite Name": "Starlink Shell 1 1045",
        "Satellite Number": 1045,
        "Semi-Major Axis(m)": 6931778.249405717,
        "Time(s)": 370
    }
]